OBJECT_NAME,OBJECT_ID,EPOCH,MEAN_MOTION,ECCENTRICITY,INCLINATION,RA_OF_ASC_NODE,ARG_OF_PERICENTER,MEAN_ANOMALY,EPHEMERIS_TYPE,CLASSIFICATION_TYPE,NORAD_CAT_ID,ELEMENT_SET_NO,REV_AT_EPOCH,BSTAR,MEAN_MOTION_DOT,MEAN_MOTION_DDOT
KOREASAT 5 (MUGUNGWHA 5),2006-034A,2026-07-18T13:45:41.764320,1.00272455,.00017235,1.8644,82.5984,79.4973,93.7519,0,U,29349,999,4163,0,-.366E-5,0
DIRECTV 9S,2006-043A,2026-07-18T12:44:37.127328,1.00271528,.00050437,2.4999,80.5253,32.7141,273.0430,0,U,29494,999,5169,0,-.122E-5,0
OPTUS D1,2006-043B,2026-07-18T12:46:07.658112,1.00272268,.00036137,3.1137,79.2720,35.9423,164.6050,0,U,29495,999,7243,0,-.192E-5,0
BADR-4,2006-051A,2026-07-18T11:40:40.698624,1.00273252,.00048586,2.0838,80.7788,33.3571,31.7721,0,U,29526,999,5158,0,.147E-5,0
WILDBLUE-1,2006-054A,2026-07-18T12:41:52.390176,1.00271854,.00014299,2.8822,80.0888,30.9529,264.5390,0,U,29643,999,5410,0,-.58E-6,0
SKYNET 5A,2007-007B,2026-07-18T14:38:10.753152,1.00273614,.00034914,5.3771,73.3532,44.9853,132.8228,0,U,30794,999,7101,0,-.281E-5,0
ANIK F3,2007-009A,2026-07-18T14:07:38.839008,1.00272131,.00025913,1.2770,83.4757,33.4655,272.6322,0,U,31102,999,4687,0,-.9E-7,0
ASTRA 1L,2007-016A,2026-07-18T11:23:49.814304,1.00270915,.0005351,1.4008,81.3260,35.9502,325.4425,0,U,31306,999,4530,0,-.193E-5,0
GALAXY 17 (G-17),2007-016B,2026-07-18T12:49:14.183616,1.00271231,.00036903,3.0491,79.5055,36.7359,287.3764,0,U,31307,999,7011,0,-.215E-5,0
INTELSAT 11 (IS-11),2007-044B,2026-07-18T08:02:22.632288,0.99052932,.00043408,3.6447,78.2916,99.6437,227.6151,0,U,32253,999,6875,0,-.221E-5,0
WGS F1 (USA 195),2007-046A,2026-07-18T09:36:03.273696,1.00272040,.00002643,0.0159,72.7522,106.7121,218.2345,0,U,32258,999,5264,0,-.275E-5,0
SKYNET 5B,2007-056B,2026-07-18T06:30:01.247328,1.00267772,.00035173,5.3287,73.1294,40.9897,304.5827,0,U,32294,999,6850,0,.129E-5,0
ASTRA 4A,2007-057A,2026-07-18T13:14:41.744256,1.00272642,.00025309,0.0520,271.4046,211.1395,17.2721,0,U,32299,999,5196,0,.25E-6,0
HORIZONS-2,2007-063B,2026-07-18T14:57:38.451744,1.00272898,.00035883,2.6814,80.2414,18.0448,348.7384,0,U,32388,999,6813,0,-.262E-5,0
THURAYA-3,2008-001A,2026-07-18T01:31:38.820000,1.00272836,.00022337,6.0409,35.8271,77.9106,268.7405,0,U,32404,999,6779,0,-.1E-7,0
THOR 5,2008-006A,2026-07-18T13:13:11.887392,1.00272724,.00024294,0.0641,251.5376,232.5547,9.7995,0,U,32487,999,6763,0,-.16E-6,0
AMC-14,2008-011A,2026-07-18T11:53:46.942080,1.00420408,.00391214,24.0463,20.1410,8.5379,166.5729,0,U,32708,999,6848,0,-.204E-5,0
DIRECTV 11,2008-013A,2026-07-18T12:45:14.567040,1.00271761,.00000771,0.0048,263.6476,202.2752,282.5282,0,U,32729,999,4590,0,-.133E-5,0
ICO G1,2008-016A,2026-07-18T12:46:59.399616,1.00272823,.00022595,5.5284,36.0270,72.7739,286.4377,0,U,32763,999,6685,0,-.181E-5,0
VINASAT-1,2008-018A,2026-07-18T13:33:38.500416,1.00271756,.0001657,0.0434,266.7100,221.8370,143.1623,0,U,32767,999,6690,0,-.335E-5,0
STAR ONE C2,2008-018B,2026-07-18T11:12:20.915136,1.00278026,.00026632,1.3184,82.1625,38.9942,278.1947,0,U,32768,999,6696,0,-.285E-5,0
AMOS-3,2008-022A,2026-07-18T11:48:47.420928,1.00489469,.00031233,0.5342,85.7729,82.9886,7.5632,0,U,32794,999,8265,0,-.27E-6,0
GALAXY 18 (G-18),2008-024A,2026-07-18T14:07:38.839008,1.00271527,.00029238,0.0193,80.6595,35.7671,268.8509,0,U,32951,999,4616,0,.18E-6,0
ZHONGXING-9,2008-028A,2026-07-17T17:30:38.547648,1.00268541,.00032719,0.8452,84.9376,31.7354,173.8616,0,U,33051,999,6634,0,-.257E-5,0
SKYNET 5C,2008-030A,2026-07-18T09:43:10.092288,1.00272370,.00042417,3.8669,76.6695,47.5559,299.9825,0,U,33055,999,6626,0,-.149E-5,0
TURKSAT 3A,2008-030B,2026-07-18T13:25:33.201984,1.00272282,.00049582,0.0436,77.9685,19.8936,81.8537,0,U,33056,999,5267,0,.139E-5,0
ECHOSTAR 11,2008-035A,2026-07-18T12:42:14.854176,1.00271448,.00023134,1.0845,83.8213,24.6251,268.6328,0,U,33207,999,5152,0,-.65E-6,0
SUPERBIRD-C2,2008-038A,2026-07-18T13:33:38.500416,1.00271735,.00063055,2.4402,80.8741,39.2918,155.6113,0,U,33274,999,10604,0,-.314E-5,0
INMARSAT 4-F3,2008-039A,2026-07-18T11:14:38.819904,1.00272619,.00026852,4.3197,31.7059,90.6528,244.5895,0,U,33278,999,4685,0,-.149E-5,0
NIMIQ 4,2008-044A,2026-07-18T12:50:06.600768,1.00270900,.00018565,0.0161,49.8216,57.0569,299.9829,0,U,33373,999,6529,0,-.227E-5,0
GALAXY 19 (G-19),2008-045A,2026-07-18T13:54:30.803616,1.00270987,.00024938,0.0440,245.8172,241.6064,280.5810,0,U,33376,999,6521,0,-.146E-5,0
ASTRA 1M,2008-057A,2026-07-18T13:19:03.824832,1.00271318,.00045915,0.3753,82.8309,42.7423,29.9092,0,U,33436,999,4605,0,.113E-5,0
