KOREASAT 5 (MUGUNGWHA 5)
1 29349U 06034A   26199.57340005 -.00000366  00000+0  00000+0 0  9995
2 29349   1.8644  82.5984 0001723  79.4973  93.7519  1.00272455 41634
DIRECTV 9S              
1 29494U 06043A   26199.53098527 -.00000122  00000+0  00000+0 0  9991
2 29494   2.4999  80.5253 0005043  32.7141 273.0430  1.00271528 51692
OPTUS D1                
1 29495U 06043B   26199.53203308 -.00000192  00000+0  00000+0 0  9994
2 29495   3.1137  79.2720 0003613  35.9423 164.6050  1.00272268 72438
BADR-4                  
1 29526U 06051A   26199.48658216  .00000147  00000+0  00000+0 0  9993
2 29526   2.0838  80.7788 0004858  33.3571  31.7721  1.00273252 51584
WILDBLUE-1              
1 29643U 06054A   26199.52907859 -.00000058  00000+0  00000+0 0  9993
2 29643   2.8822  80.0888 0001429  30.9529 264.5390  1.00271854 54101
SKYNET 5A               
1 30794U 07007B   26199.60984668 -.00000281  00000+0  00000+0 0  9991
2 30794   5.3771  73.3532 0003491  44.9853 132.8228  1.00273614 71010
ANIK F3                 
1 31102U 07009A   26199.58864397 -.00000009  00000+0  00000+0 0  9998
2 31102   1.2770  83.4757 0002591  33.4655 272.6322  1.00272131 46879
ASTRA 1L                
1 31306U 07016A   26199.47488211 -.00000193  00000+0  00000+0 0  9991
2 31306   1.4008  81.3260 0005351  35.9502 325.4425  1.00270915 45308
GALAXY 17 (G-17)        
1 31307U 07016B   26199.53419194 -.00000215  00000+0  00000+0 0  9998
2 31307   3.0491  79.5055 0003690  36.7359 287.3764  1.00271231 70118
INTELSAT 11 (IS-11)     
1 32253U 07044B   26199.33498417 -.00000221  00000+0  00000+0 0  9990
2 32253   3.6447  78.2916 0004340  99.6437 227.6151  0.99052932 68752
WGS F1 (USA 195)        
1 32258U 07046A   26199.40003789 -.00000275  00000+0  00000+0 0  9998
2 32258   0.0159  72.7522 0000264 106.7121 218.2345  1.00272040 52640
SKYNET 5B               
1 32294U 07056B   26199.27084777  .00000129  00000+0  00000+0 0  9997
2 32294   5.3287  73.1294 0003517  40.9897 304.5827  1.00267772 68506
ASTRA 4A                
1 32299U 07057A   26199.55187204  .00000025  00000+0  00000+0 0  9998
2 32299   0.0520 271.4046 0002530 211.1395  17.2721  1.00272642 51965
HORIZONS-2              
1 32388U 07063B   26199.62336171 -.00000262  00000+0  00000+0 0  9995
2 32388   2.6814  80.2414 0003588  18.0448 348.7384  1.00272898 68137
THURAYA-3               
1 32404U 08001A   26199.06364375 -.00000001  00000+0  00000+0 0  9993
2 32404   6.0409  35.8271 0002233  77.9106 268.7405  1.00272836 67790
THOR 5                  
1 32487U 08006A   26199.55083203 -.00000016  00000+0  00000+0 0  9997
2 32487   0.0641 251.5376 0002429 232.5547   9.7995  1.00272724 67637
AMC-14                  
1 32708U 08011A   26199.49568220 -.00000204  00000+0  00000+0 0  9998
2 32708  24.0463  20.1410 0039121   8.5379 166.5729  1.00420408 68488
DIRECTV 11              
1 32729U 08013A   26199.53141860 -.00000133  00000+0  00000+0 0  9996
2 32729   0.0048 263.6476 0000077 202.2752 282.5282  1.00271761 45907
ICO G1                  
1 32763U 08016A   26199.53263194 -.00000181  00000+0  00000+0 0  9995
2 32763   5.5284  36.0270 0002259  72.7739 286.4377  1.00272823 66855
VINASAT-1               
1 32767U 08018A   26199.56502894 -.00000335  00000+0  00000+0 0  9998
2 32767   0.0434 266.7100 0001657 221.8370 143.1623  1.00271756 66902
STAR ONE C2             
1 32768U 08018B   26199.46690874 -.00000285  00000+0  00000+0 0  9998
2 32768   1.3184  82.1625 0002663  38.9942 278.1947  1.00278026 66962
AMOS-3                  
1 32794U 08022A   26199.49221552 -.00000027  00000+0  00000+0 0  9992
2 32794   0.5342  85.7729 0003123  82.9886   7.5632  1.00489469 82654
GALAXY 18 (G-18)        
1 32951U 08024A   26199.58864397  .00000018  00000+0  00000+0 0  9998
2 32951   0.0193  80.6595 0002923  35.7671 268.8509  1.00271527 46163
ZHONGXING-9             
1 33051U 08028A   26198.72961282 -.00000257  00000+0  00000+0 0  9996
2 33051   0.8452  84.9376 0003271  31.7354 173.8616  1.00268541 66344
SKYNET 5C               
1 33055U 08030A   26199.40497792 -.00000149  00000+0  00000+0 0  9999
2 33055   3.8669  76.6695 0004241  47.5559 299.9825  1.00272370 66261
TURKSAT 3A              
1 33056U 08030B   26199.55941206  .00000139  00000+0  00000+0 0  9998
2 33056   0.0436  77.9685 0004958  19.8936  81.8537  1.00272282 52672
ECHOSTAR 11             
1 33207U 08035A   26199.52933859 -.00000065  00000+0  00000+0 0  9992
2 33207   1.0845  83.8213 0002313  24.6251 268.6328  1.00271448 51524
SUPERBIRD-C2            
1 33274U 08038A   26199.56502894 -.00000314  00000+0  00000+0 0  9991
2 33274   2.4402  80.8741 0006305  39.2918 155.6113  1.00271735106046
INMARSAT 4-F3           
1 33278U 08039A   26199.46850486 -.00000149  00000+0  00000+0 0  9994
2 33278   4.3197  31.7059 0002685  90.6528 244.5895  1.00272619 46853
NIMIQ 4                 
1 33373U 08044A   26199.53479862 -.00000227  00000+0  00000+0 0  9996
2 33373   0.0161  49.8216 0001856  57.0569 299.9829  1.00270900 65290
GALAXY 19 (G-19)        
1 33376U 08045A   26199.57952319 -.00000146  00000+0  00000+0 0  9997
2 33376   0.0440 245.8172 0002493 241.6064 280.5810  1.00270987 65214
ASTRA 1M                
1 33436U 08057A   26199.55490538  .00000113  00000+0  00000+0 0  9998
2 33436   0.3753  82.8309 0004591  42.7423  29.9092  1.00271318 46059
